IRIDIUM 7 [-]           
1 24793U 97020B   24013.60515294  .00000642  00000+0  21861-3 0  9997
2 24793  86.3944  34.9572 0002373  86.0042 274.1426 14.35036833397434
IRIDIUM 5 [-]           
1 24795U 97020D   24014.35384221  .00004754  00000+0  46957-3 0  9997
2 24795  86.3956 321.5666 0125025 190.4923 169.3692 14.85944375408095
IRIDIUM 4 [-]           
1 24796U 97020E   24014.47799368  .00000658  00000+0  22012-3 0  9998
2 24796  86.3943  31.8148 0002369  91.3369 268.8099 14.35947607397893
IRIDIUM 914 [-]         
1 24836U 97030A   24014.50446053  .00000743  00000+0  23090-3 0  9990
2 24836  86.3916  41.9276 0003791 110.6806 249.4799 14.39780520394424
IRIDIUM 16 [-]          
1 24841U 97030F   24014.18374965  .00000734  00000+0  23802-3 0  9993
2 24841  86.4009  63.6512 0002181  36.9644 323.1703 14.37666788392521
IRIDIUM 911 [-]         
1 24842U 97030G   24014.13283941  .00000906  00000+0  24727-3 0  9990
2 24842  86.4435  62.9289 0015565  38.1023 322.1277 14.46235235399861
IRIDIUM 17 [-]          
1 24870U 97034B   24013.77640775  .00000844  00000+0  27969-3 0  9998
2 24870  86.3951  93.4801 0000460  78.1051 282.0198 14.36762701388839
IRIDIUM 920 [-]         
1 24871U 97034C   24014.18632066  .00000748  00000+0  22895-3 0  9995
2 24871  86.3952  73.7374 0011571   7.7678 352.3698 14.40485528391952
